GLOBALSTAR M057 [-]     
1 25943U 99058A   23265.50815199 -.00000062  00000+0  28545-3 0  9995
2 25943  52.0014 346.4900 0003113 143.9552 216.1507 12.24771892 89282
GLOBALSTAR M059 [-]     
1 25944U 99058B   23265.04948230 -.00000069  00000+0  21824-3 0  9998
2 25944  52.0003 122.6780 0000921  86.4389  67.1655 11.99952906497913
GLOBALSTAR M056 [-]     
1 25945U 99058C   23265.09190917 -.00000038  00000+0  58240-3 0  9993
2 25945  51.9955 140.8164 0001457  30.6688 116.9634 12.04769418 86199
GLOBALSTAR M031 [-]     
1 25946U 99058D   23265.48941866 -.00000082  00000+0  87356-4 0  9994
2 25946  51.9962  69.9578 0001404   3.7316   2.8695 12.15996702 87459
GLOBALSTAR M039 [-]     
1 25961U 99062A   23265.55091121 -.00000067  00000+0  20379-3 0  9998
2 25961  51.9865  38.5491 0003086  37.9895 322.1189 12.62270549100192
GLOBALSTAR M034 [-]     
1 25962U 99062B   23265.30235648 -.00000051  00000+0  47810-3 0  9998
2 25962  51.9856 219.0749 0013954 286.1445 224.3672 11.79415154 63591
GLOBALSTAR M029 [-]     
1 25963U 99062C   23265.58572012 -.00000071  00000+0  19067-3 0  9993
2 25963  51.9839   9.8032 0002053 321.8129 139.1286 11.99867566 93066
GLOBALSTAR M061 [-]     
1 25964U 99062D   23265.55152404 -.00000059  00000+0  35589-3 0  9993
2 25964  51.9820  34.0659 0005731 207.9670 232.7470 11.76750064 46582
